NORAD_CAT_ID,OBJECT_NAME,OBJECT_TYPE,EPOCH,MEAN_MOTION,ECCENTRICITY,INCLINATION,RA_OF_ASC_NODE,ARG_OF_PERICENTER,MEAN_ANOMALY,BSTAR,MEAN_MOTION_DOT,MEAN_MOTION_DDOT,TLE_LINE0,TLE_LINE1,TLE_LINE2,SEMIMAJOR_AXIS,PERIOD,APOGEE,PERIGEE,DECAYED
53998.0,STARLINK-5128,PAYLOAD,2023-08-10 01:54:17,15.08843668,9.41e-05,53.2156,125.4341,129.4875,230.6201,0.00033341,5.023e-05,0.0,0 STARLINK-5128,1 53998U 22125AL  23222.07937083  .00005023  00000-0  33341-3 0  9991,2 53998  53.2156 125.4341 0000941 129.4875 230.6201 15.08843668 47237,6917.869,95.437,540.385,539.083,0.0
53998.0,STARLINK-5128,PAYLOAD,2023-08-10 17:48:09,15.0884036,0.0001825,53.2183,122.4641,78.1123,282.0074,0.00020167,2.923e-05,0.0,0 STARLINK-5128,1 53998U 22125AL  23222.74177809  .00002923  00000-0  20167-3 0  9995,2 53998  53.2183 122.4641 0001825  78.1123 282.0074 15.08840360 47331,6917.879,95.438,541.007,538.482,0.0
53998.0,STARLINK-5128,PAYLOAD,2023-08-11 17:38:56,15.08834831,0.0001373,53.2175,118.002,91.7323,268.3827,7.0128e-05,8.28e-06,0.0,0 STARLINK-5128,1 53998U 22125AL  23223.73538105  .00000828  00000-0  70128-4 0  9990,2 53998  53.2175 118.0020 0001373  91.7323 268.3827 15.08834831 47480,6917.896,95.438,540.711,538.811,0.0
53998.0,STARLINK-5128,PAYLOAD,2023-08-12 03:11:15,15.08842628,0.0001217,53.217,116.2183,93.219,266.8942,0.00019309,2.787e-05,0.0,0 STARLINK-5128,1 53998U 22125AL  23224.13281872  .00002787  00000-0  19309-3 0  9990,2 53998  53.2170 116.2183 0001217  93.2190 266.8942 15.08842628 47542,6917.872,95.437,540.579,538.895,0.0
53998.0,STARLINK-5128,PAYLOAD,2023-08-14 01:17:26,15.08841777,0.0001382,53.2176,107.5913,80.0412,280.0736,0.00010821,1.435e-05,0.0,0 STARLINK-5128,1 53998U 22125AL  23226.05378112  .00001435  00000-0  10821-3 0  9996,2 53998  53.2176 107.5913 0001382  80.0412 280.0736 15.08841777 47831,6917.875,95.437,540.696,538.784,0.0
53998.0,STARLINK-5128,PAYLOAD,2023-08-15 23:23:37,15.08844511,0.0001165,53.2165,98.9679,88.6086,271.504,0.00011205,1.496e-05,0.0,0 STARLINK-5128,1 53998U 22125AL  23227.97474035  .00001496  00000-0  11205-3 0  9993,2 53998  53.2165  98.9679 0001165  88.6086 271.5040 15.08844511 48126,6917.867,95.437,540.538,538.926,0.0
53998.0,STARLINK-5128,PAYLOAD,2023-08-17 00:49:47,15.08850711,0.0001182,53.217,94.2121,90.3772,269.7355,8.058e-05,9.95e-06,0.0,0 STARLINK-5128,1 53998U 22125AL  23229.03457655  .00000995  00000-0  80580-4 0  9997,2 53998  53.2170  94.2121 0001182  90.3772 269.7355 15.08850711 48288,6917.848,95.437,540.53,538.895,0.0
53998.0,STARLINK-5128,PAYLOAD,2023-08-17 16:43:39,15.08841002,0.0001366,53.2167,91.2401,98.6526,261.4621,0.00011815,1.593e-05,0.0,0 STARLINK-5128,1 53998U 22125AL  23229.69698223  .00001593  00000-0  11815-3 0  9996,2 53998  53.2167  91.2401 0001366  98.6526 261.4621 15.08841002 48383,6917.877,95.437,540.687,538.797,0.0
53998.0,STARLINK-5128,PAYLOAD,2023-08-18 16:34:26,15.08832128,0.0001221,53.2176,86.7797,91.5512,268.562,-3.2178e-05,-8e-06,0.0,0 STARLINK-5128,1 53998U 22125AL  23230.69058714 -.00000800  00000-0 -32178-4 0  9991,2 53998  53.2176  86.7797 0001221  91.5512 268.5620 15.08832128 48530,6917.904,95.438,540.614,538.925,0.0
53998.0,STARLINK-5128,PAYLOAD,2023-08-19 00:31:22,15.08839322,0.0001422,53.2143,85.2909,94.5105,265.605,-7.683e-05,-1.51e-05,0.0,0 STARLINK-5128,1 53998U 22125AL  23231.02178342 -.00001510  00000-0 -76830-4 0  9991,2 53998  53.2143  85.2909 0001422  94.5105 265.6050 15.08839322 48580,6917.882,95.438,540.731,538.764,0.0
53998.0,STARLINK-5128,PAYLOAD,2023-08-20 00:22:09,15.08833433,0.0001608,53.2141,80.83,100.3828,259.7346,-1.544e-05,-5.34e-06,0.0,0 STARLINK-5128,1 53998U 22125AL  23232.01539033 -.00000534  00000-0 -15440-4 0  9994,2 53998  53.2141  80.8300 0001608 100.3828 259.7346 15.08833433 48734,6917.9,95.438,540.878,538.653,0.0
53998.0,STARLINK-5128,PAYLOAD,2023-08-21 00:12:56,15.0884793,0.0001145,53.2149,76.3688,85.6684,274.4439,0.00023987,3.533e-05,0.0,0 STARLINK-5128,1 53998U 22125AL  23233.00898508  .00003533  00000-0  23987-3 0  9993,2 53998  53.2149  76.3688 0001145  85.6684 274.4439 15.08847930 48882,6917.856,95.437,540.513,538.929,0.0
53998.0,STARLINK-5128,PAYLOAD,2023-08-21 06:34:29,15.08837139,0.0001159,53.2153,75.18,89.4055,270.707,0.00013965,1.935e-05,0.0,0 STARLINK-5128,1 53998U 22125AL  23233.27395115  .00001935  00000-0  13965-3 0  9997,2 53998  53.2153  75.1800 0001159  89.4055 270.7070 15.08837139 48924,6917.889,95.438,540.556,538.952,0.0
53998.0,STARLINK-5128,PAYLOAD,2023-08-22 00:03:43,15.08848375,0.0001137,53.2154,71.9087,90.5086,269.6036,0.00026522,3.937e-05,0.0,0 STARLINK-5128,1 53998U 22125AL  23234.00258675  .00003937  00000-0  26522-3 0  9995,2 53998  53.2154  71.9087 0001137  90.5086 269.6036 15.08848375 49035,6917.855,95.437,540.506,538.933,0.0
53998.0,STARLINK-5128,PAYLOAD,2023-08-23 12:37:36,15.08835147,0.0001175,53.2166,65.0681,89.0618,271.0508,0.00016262,2.301e-05,0.0,0 STARLINK-5128,1 53998U 22125AL  23235.52611434  .00002301  00000-0  16262-3 0  9993,2 53998  53.2166  65.0681 0001175  89.0618 271.0508 15.08835147 49267,6917.895,95.438,540.573,538.947,0.0
53998.0,STARLINK-5128,PAYLOAD,2023-08-23 20:34:31,15.08843048,0.0001159,53.217,63.5813,90.0386,270.0739,0.00010561,1.393e-05,0.0,0 STARLINK-5128,1 53998U 22125AL  23235.85731103  .00001393  00000-0  10561-3 0  9991,2 53998  53.2170  63.5813 0001159  90.0386 270.0739 15.08843048 49318,6917.871,95.437,540.538,538.934,0.0
53998.0,STARLINK-5128,PAYLOAD,2023-08-24 20:25:18,15.08846089,0.0001126,53.2177,59.1206,94.4679,265.6442,0.00014888,2.083e-05,0.0,0 STARLINK-5128,1 53998U 22125AL  23236.85091084  .00002083  00000-0  14888-3 0  9992,2 53998  53.2177  59.1206 0001126  94.4679 265.6442 15.08846089 49396,6917.862,95.437,540.506,538.948,0.0
53998.0,STARLINK-5128,PAYLOAD,2023-08-25 09:08:23,15.08848236,0.000102,53.2178,56.7417,86.3004,273.8105,0.00015207,2.134e-05,0.0,0 STARLINK-5128,1 53998U 22125AL  23237.38082813  .00002134  00000-0  15207-3 0  9994,2 53998  53.2178  56.7417 0001020  86.3004 273.8105 15.08848236 49549,6917.855,95.437,540.426,539.015,0.0
53998.0,STARLINK-5128,PAYLOAD,2023-08-25 18:40:42,15.08842378,0.0001006,53.2176,54.9573,95.8031,264.3076,4.0426e-05,3.56e-06,0.0,0 STARLINK-5128,1 53998U 22125AL  23237.77827236  .00000356  00000-0  40426-4 0  9999,2 53998  53.2176  54.9573 0001006  95.8031 264.3076 15.08842378 49609,6917.873,95.437,540.434,539.042,0.0
53998.0,STARLINK-5128,PAYLOAD,2023-08-26 12:09:57,15.08836401,0.0001248,53.2169,51.688,92.4081,267.7054,8.9331e-05,1.134e-05,0.0,0 STARLINK-5128,1 53998U 22125AL  23238.50691544  .00001134  00000-0  89331-4 0  9995,2 53998  53.2169  51.6880 0001248  92.4081 267.7054 15.08836401 49649,6917.891,95.438,540.62,538.893,0.0
53998.0,STARLINK-5128,PAYLOAD,2023-08-26 16:56:06,15.08839176,0.0001252,53.2175,50.7965,96.8694,263.2441,0.00010829,1.436e-05,0.0,0 STARLINK-5128,1 53998U 22125AL  23238.70563331  .00001436  00000-0  10829-3 0  9999,2 53998  53.2175  50.7965 0001252  96.8694 263.2441 15.08839176 49679,6917.883,95.438,540.614,538.882,0.0
53998.0,STARLINK-5128,PAYLOAD,2023-08-27 10:25:21,15.08837325,0.0001357,53.2184,47.5263,102.5539,257.5605,8.7841e-05,1.11e-05,0.0,0 STARLINK-5128,1 53998U 22125AL  23239.43427654  .00001110  00000-0  87841-4 0  9995,2 53998  53.2184  47.5263 0001357 102.5539 257.5605 15.08837325 49855,6917.889,95.438,540.692,538.815,0.0
53998.0,STARLINK-5128,PAYLOAD,2023-08-27 16:46:54,15.088361,0.0001347,53.2184,46.3363,104.1664,255.9478,6.6165e-05,7.65e-06,0.0,0 STARLINK-5128,1 53998U 22125AL  23239.69923817  .00000765  00000-0  66165-4 0  9996,2 53998  53.2184  46.3363 0001347 104.1664 255.9478 15.08836100 49826,6917.892,95.438,540.689,538.825,0.0
53998.0,STARLINK-5128,PAYLOAD,2023-08-28 16:37:41,15.08837616,0.0001214,53.2177,41.8755,95.5369,264.5761,5.0557e-05,5.17e-06,0.0,0 STARLINK-5128,1 53998U 22125AL  23240.69283970  .00000517  00000-0  50557-4 0  9990,2 53998  53.2177  41.8755 0001214  95.5369 264.5761 15.08837616 50041,6917.888,95.438,540.593,538.913,0.0
53998.0,STARLINK-5128,PAYLOAD,2023-08-29 18:03:51,15.08838027,0.0001277,53.2182,37.1185,89.4016,270.7122,0.00012204,1.655e-05,0.0,0 STARLINK-5128,1 53998U 22125AL  23241.75268076  .00001655  00000-0  12204-3 0  9998,2 53998  53.2182  37.1185 0001277  89.4016 270.7122 15.08838027 50139,6917.886,95.438,540.635,538.868,0.0
53998.0,STARLINK-5128,PAYLOAD,2023-08-30 16:19:15,15.08844573,0.0001277,53.2184,32.9559,81.9346,278.1791,9.2353e-05,1.182e-05,0.0,0 STARLINK-5128,1 53998U 22125AL  23242.68003789  .00001182  00000-0  92353-4 0  9998,2 53998  53.2184  32.9559 0001277  81.9346 278.1791 15.08844573 50274,6917.866,95.437,540.615,538.848,0.0
53998.0,STARLINK-5128,PAYLOAD,2023-08-31 11:23:53,15.08836896,0.0001216,53.2183,29.3874,83.2223,276.8908,5.341e-05,5.62e-06,0.0,0 STARLINK-5128,1 53998U 22125AL  23243.47492253  .00000562  00000-0  53410-4 0  9996,2 53998  53.2183  29.3874 0001216  83.2223 276.8908 15.08836896 50460,6917.89,95.438,540.596,538.914,0.0
53998.0,STARLINK-5128,PAYLOAD,2023-09-01 09:39:17,15.0884136,0.0001369,53.218,25.2244,83.4607,276.6541,4.3678e-05,4.07e-06,0.0,0 STARLINK-5128,1 53998U 22125AL  23244.40228051  .00000407  00000-0  43678-4 0  9996,2 53998  53.2180  25.2244 0001369  83.4607 276.6541 15.08841360 50531,6917.876,95.437,540.688,538.794,0.0
53998.0,STARLINK-5128,PAYLOAD,2023-09-01 16:00:49,15.08846032,0.0001434,53.2175,24.0344,87.5359,272.5797,7.575e-05,9.18e-06,0.0,0 STARLINK-5128,1 53998U 22125AL  23244.66723685  .00000918  00000-0  75750-4 0  9990,2 53998  53.2175  24.0344 0001434  87.5359 272.5797 15.08846032 50646,6917.862,95.437,540.719,538.735,0.0
53998.0,STARLINK-5128,PAYLOAD,2023-09-02 04:43:54,15.08822178,0.0001285,53.2177,21.6551,96.1076,264.0062,0.00035134,5.305e-05,0.0,0 STARLINK-5128,1 53998U 22125AL  23245.19716306  .00005305  00000-0  35134-3 0  9997,2 53998  53.2177  21.6551 0001285  96.1076 264.0062 15.08822178 50722,6917.935,95.439,540.689,538.911,0.0
